{
  "norad_id": 68881,
  "name": "KUIPER-00499",
  "history": [
    {
      "epoch": "2026-05-02T10:00:03.000096Z",
      "apogee_km": 464.9516715595064,
      "perigee_km": 451.08521385951553,
      "latitude_deg": 38.89082461303734,
      "longitude_deg": -125.62631810263305,
      "height_km": 454.38371046770163,
      "semi_major_axis_km": 6836.155442709511,
      "eccentricity": 0.0010142,
      "inclination_deg": 51.8686,
      "raan_deg": 103.748,
      "arg_perigee_deg": 136.132,
      "mean_anomaly_deg": 351.1417,
      "mean_motion_rev_day": 15.3597755
    }
  ]
}