{"fetched_at":"2026-05-03T06:27:58Z","count":17151,"tles":[{"name":"KUIPER-00499","line1":"1 68881U 26095T   26122.41670139  .00066064  00000+0  18493-2 0  9995","line2":"2 68881  51.8686 103.7480 0010142 136.1320 351.1417 15.35977550  1307","category":"Other"}]}